{"type": "FeatureCollection", "features": [ {"type": "Feature", "properties": {"norad_id": 30134, "name": "FENGYUN 1C DEB", "group": "fengyun-1c-debris", "lat": -81.28409112139225, "lon": 109.39194217272544, "alt_km": 861.05934954659, "timestamp": "2025-12-22T23:36:20.987587+00:00", "meta": {"OBJECT_NAME": "FENGYUN 1C DEB", "OBJECT_ID": "1999-025SP", "EPOCH": "2025-12-22T12:51:36.372960", "MEAN_MOTION": 14.13364458, "ECCENTRICITY": 0.00194209, "INCLINATION": 98.6929, "RA_OF_ASC_NODE": 15.2881, "ARG_OF_PERICENTER": 155.9906, "MEAN_ANOMALY": 356.3819, "EPHEMERIS_TYPE": 0, "CLASSIFICATION_TYPE": "U", "NORAD_CAT_ID": 30134, "ELEMENT_SET_NO": 999, "REV_AT_EPOCH": 97384, "BSTAR": 0.00040740117, "MEAN_MOTION_DOT": 7.24e-06, "MEAN_MOTION_DDOT": 0}, "tle": {"line1": "1 30134U 99025SP  25356.53583765  .00000724  00000+0  40740-3 0  9999", "line2": "2 30134  98.6929  15.2881 0019420 155.9906 356.3819 14.13364458973847"}}, "geometry": {"type": "Point", "coordinates": [109.39194217272544, -81.28409112139225]}}, {"type": "Feature", "properties": {"norad_id": 30136, "name": "FENGYUN 1C DEB", "group": "fengyun-1c-debris", "lat": -23.28934749439328, "lon": -107.16909421542462, "alt_km": 874.0589231862687, "timestamp": "2025-12-22T23:36:20.987597+00:00", "meta": {"OBJECT_NAME": "FENGYUN 1C DEB", "OBJECT_ID": "1999-025SR", "EPOCH": "2025-12-21T23:41:48.787008", "MEAN_MOTION": 13.95335564, "ECCENTRICITY": 0.0129441, "INCLINATION": 98.5565, "RA_OF_ASC_NODE": 248.1903, "ARG_OF_PERICENTER": 44.0205, "MEAN_ANOMALY": 332.4739, "EPHEMERIS_TYPE": 0, "CLASSIFICATION_TYPE": "U", "NORAD_CAT_ID": 30136, "ELEMENT_SET_NO": 999, "REV_AT_EPOCH": 96220, "BSTAR": 0.00050279, "MEAN_MOTION_DOT": 6.91e-06, "MEAN_MOTION_DDOT": 0}, "tle": {"line1": "1 30136U 99025SR  25355.98737022  .00000691  00000+0  50279-3 0  9997", "line2": "2 30136  98.5565 248.1903 0129441  44.0205 332.4739 13.95335564962200"}}, "geometry": {"type": "Point", "coordinates": [-107.16909421542462, -23.28934749439328]}}, {"type": "Feature", "properties": {"norad_id": 30138, "name": "FENGYUN 1C DEB", "group": "fengyun-1c-debris", "lat": -74.87754520704746, "lon": -164.64122622978107, "alt_km": 844.7726244172072, "timestamp": "2025-12-22T23:36:20.987608+00:00", "meta": {"OBJECT_NAME": "FENGYUN 1C DEB", "OBJECT_ID": "1999-025ST", "EPOCH": "2025-12-22T04:07:32.132352", "MEAN_MOTION": 14.20057124, "ECCENTRICITY": 0.00203318, "INCLINATION": 98.7583, "RA_OF_ASC_NODE": 49.3377, "ARG_OF_PERICENTER": 112.5648, "MEAN_ANOMALY": 317.7829, "EPHEMERIS_TYPE": 0, "CLASSIFICATION_TYPE": "U", "NORAD_CAT_ID": 30138, "ELEMENT_SET_NO": 999, "REV_AT_EPOCH": 97535, "BSTAR": 0.00068293058, "MEAN_MOTION_DOT": 1.413e-05, "MEAN_MOTION_DDOT": 0}, "tle": {"line1": "1 30138U 99025ST  25356.17189968  .00001413  00000+0  68293-3 0  9999", "line2": "2 30138  98.7583  49.3377 0020331 112.5648 317.7829 14.20057124975358"}}, "geometry": {"type": "Point", "coordinates": [-164.64122622978107, -74.87754520704746]}}, {"type": "Feature", "properties": {"norad_id": 30139, "name": "FENGYUN 1C DEB", "group": "fengyun-1c-debris", "lat": -31.42167976411159, "lon": 14.604197126718516, "alt_km": 824.8416652284632, "timestamp": "2025-12-22T23:36:20.987618+00:00", "meta": {"OBJECT_NAME": "FENGYUN 1C DEB", "OBJECT_ID": "1999-025SU", "EPOCH": "2025-12-20T12:41:13.934400", "MEAN_MOTION": 14.03677489, "ECCENTRICITY": 0.0130916, "INCLINATION": 98.3653, "RA_OF_ASC_NODE": 197.5016, "ARG_OF_PERICENTER": 268.3336, "MEAN_ANOMALY": 146.0114, "EPHEMERIS_TYPE": 0, "CLASSIFICATION_TYPE": "U", "NORAD_CAT_ID": 30139, "ELEMENT_SET_NO": 999, "REV_AT_EPOCH": 96359, "BSTAR": 0.00074815, "MEAN_MOTION_DOT": 1.228e-05, "MEAN_MOTION_DDOT": 0}, "tle": {"line1": "1 30139U 99025SU  25354.52863350  .00001228  00000+0  74815-3 0  9992", "line2": "2 30139  98.3653 197.5016 0130916 268.3336 146.0114 14.03677489963590"}}, "geometry": {"type": "Point", "coordinates": [14.604197126718516, -31.42167976411159]}}, {"type": "Feature", "properties": {"norad_id": 30140, "name": "FENGYUN 1C DEB", "group": "fengyun-1c-debris", "lat": 77.19410206452947, "lon": -77.03994028702307, "alt_km": 844.8658998417322, "timestamp": "2025-12-22T23:36:20.987628+00:00", "meta": {"OBJECT_NAME": "FENGYUN 1C DEB", "OBJECT_ID": "1999-025SV", "EPOCH": "2025-12-20T22:58:02.462016", "MEAN_MOTION": 14.20787968, "ECCENTRICITY": 0.0040948, "INCLINATION": 98.8258, "RA_OF_ASC_NODE": 57.8166, "ARG_OF_PERICENTER": 285.4592, "MEAN_ANOMALY": 253.8839, "EPHEMERIS_TYPE": 0, "CLASSIFICATION_TYPE": "U", "NORAD_CAT_ID": 30140, "ELEMENT_SET_NO": 999, "REV_AT_EPOCH": 97260, "BSTAR": 0.00086556, "MEAN_MOTION_DOT": 1.84e-05, "MEAN_MOTION_DDOT": 0}, "tle": {"line1": "1 30140U 99025SV  25354.95697294  .00001840  00000+0  86556-3 0  9998", "line2": "2 30140  98.8258  57.8166 0040948 285.4592 253.8839 14.20787968972607"}}, "geometry": {"type": "Point", "coordinates": [-77.03994028702307, 77.19410206452947]}}, {"type": "Feature", "properties": {"norad_id": 30141, "name": "FENGYUN 1C DEB", "group": "fengyun-1c-debris", "lat": -32.63577673169907, "lon": 93.65674864664574, "alt_km": 738.549581330225, "timestamp": "2025-12-22T23:36:20.987638+00:00", "meta": {"OBJECT_NAME": "FENGYUN 1C DEB", "OBJECT_ID": "1999-025SW", "EPOCH": "2025-12-22T01:07:25.902912", "MEAN_MOTION": 14.51741273, "ECCENTRICITY": 0.00194617, "INCLINATION": 99.0157, "RA_OF_ASC_NODE": 278.4881, "ARG_OF_PERICENTER": 11.3388, "MEAN_ANOMALY": 348.824, "EPHEMERIS_TYPE": 0, "CLASSIFICATION_TYPE": "U", "NORAD_CAT_ID": 30141, "ELEMENT_SET_NO": 999, "REV_AT_EPOCH": 98379, "BSTAR": 0.0028128293, "MEAN_MOTION_DOT": 0.00011295, "MEAN_MOTION_DDOT": 0}, "tle": {"line1": "1 30141U 99025SW  25356.04682758  .00011295  00000+0  28128-2 0  9995", "line2": "2 30141  99.0157 278.4881 0019461  11.3388 348.8240 14.51741273983795"}}, "geometry": {"type": "Point", "coordinates": [93.65674864664574, -32.63577673169907]}}, {"type": "Feature", "properties": {"norad_id": 30142, "name": "FENGYUN 1C DEB", "group": "fengyun-1c-debris", "lat": -10.15317377613585, "lon": 74.567177087414, "alt_km": 836.5031016611956, "timestamp": "2025-12-22T23:36:20.987648+00:00", "meta": {"OBJECT_NAME": "FENGYUN 1C DEB", "OBJECT_ID": "1999-025SX", "EPOCH": "2025-12-22T11:44:14.242272", "MEAN_MOTION": 14.10533193, "ECCENTRICITY": 0.01020489, "INCLINATION": 99.1281, "RA_OF_ASC_NODE": 72.4152, "ARG_OF_PERICENTER": 280.5739, "MEAN_ANOMALY": 78.3949, "EPHEMERIS_TYPE": 0, "CLASSIFICATION_TYPE": "U", "NORAD_CAT_ID": 30142, "ELEMENT_SET_NO": 999, "REV_AT_EPOCH": 96436, "BSTAR": 0.001636373, "MEAN_MOTION_DOT": 3.014e-05, "MEAN_MOTION_DDOT": 0}, "tle": {"line1": "1 30142U 99025SX  25356.48905373  .00003014  00000+0  16364-2 0  9994", "line2": "2 30142  99.1281  72.4152 0102048 280.5739  78.3949 14.10533193964360"}}, "geometry": {"type": "Point", "coordinates": [74.567177087414, -10.15317377613585]}}, {"type": "Feature", "properties": {"norad_id": 30143, "name": "FENGYUN 1C DEB", "group": "fengyun-1c-debris", "lat": -10.934901260709534, "lon": -178.4401471837548, "alt_km": 883.9331406007032, "timestamp": "2025-12-22T23:36:20.987658+00:00", "meta": {"OBJECT_NAME": "FENGYUN 1C DEB", "OBJECT_ID": "1999-025SY", "EPOCH": "2025-12-22T11:48:09.832608", "MEAN_MOTION": 14.02615459, "ECCENTRICITY": 0.0103447, "INCLINATION": 98.7347, "RA_OF_ASC_NODE": 179.3861, "ARG_OF_PERICENTER": 263.6612, "MEAN_ANOMALY": 122.3007, "EPHEMERIS_TYPE": 0, "CLASSIFICATION_TYPE": "U", "NORAD_CAT_ID": 30143, "ELEMENT_SET_NO": 999, "REV_AT_EPOCH": 96356, "BSTAR": 0.00096610239, "MEAN_MOTION_DOT": 1.519e-05, "MEAN_MOTION_DDOT": 0}, "tle": {"line1": "1 30143U 99025SY  25356.49178047  .00001519  00000+0  96610-3 0  9997", "line2": "2 30143  98.7347 179.3861 0103447 263.6612 122.3007 14.02615459963562"}}, "geometry": {"type": "Point", "coordinates": [-178.4401471837548, -10.934901260709534]}}, {"type": "Feature", "properties": {"norad_id": 30144, "name": "FENGYUN 1C DEB", "group": "fengyun-1c-debris", "lat": 1.5346211274518484, "lon": -10.770572271513647, "alt_km": 937.9205805376341, "timestamp": "2025-12-22T23:36:20.987668+00:00", "meta": {"OBJECT_NAME": "FENGYUN 1C DEB", "OBJECT_ID": "1999-025SZ", "EPOCH": "2025-12-20T11:51:00.005184", "MEAN_MOTION": 13.91828778, "ECCENTRICITY": 0.01255831, "INCLINATION": 99.0099, "RA_OF_ASC_NODE": 347.054, "ARG_OF_PERICENTER": 269.5648, "MEAN_ANOMALY": 221.971, "EPHEMERIS_TYPE": 0, "CLASSIFICATION_TYPE": "U", "NORAD_CAT_ID": 30144, "ELEMENT_SET_NO": 999, "REV_AT_EPOCH": 95948, "BSTAR": 0.00040974688, "MEAN_MOTION_DOT": 5.12e-06, "MEAN_MOTION_DDOT": 0}, "tle": {"line1": "1 30144U 99025SZ  25354.49375006  .00000512  00000+0  40975-3 0  9995", "line2": "2 30144  99.0099 347.0540 0125583 269.5648 221.9710 13.91828778959488"}}, "geometry": {"type": "Point", "coordinates": [-10.770572271513647, 1.5346211274518484]}}, {"type": "Feature", "properties": {"norad_id": 30145, "name": "FENGYUN 1C DEB", "group": "fengyun-1c-debris", "lat": 3.9100592958492033, "lon": -72.4167798269565, "alt_km": 810.2035099518525, "timestamp": "2025-12-22T23:36:20.987679+00:00", "meta": {"OBJECT_NAME": "FENGYUN 1C DEB", "OBJECT_ID": "1999-025TA", "EPOCH": "2025-12-22T12:53:05.078976", "MEAN_MOTION": 14.14123357, "ECCENTRICITY": 0.0090235, "INCLINATION": 99.2701, "RA_OF_ASC_NODE": 106.4804, "ARG_OF_PERICENTER": 121.8007, "MEAN_ANOMALY": 300.3816, "EPHEMERIS_TYPE": 0, "CLASSIFICATION_TYPE": "U", "NORAD_CAT_ID": 30145, "ELEMENT_SET_NO": 999, "REV_AT_EPOCH": 96334, "BSTAR": 0.0028233995, "MEAN_MOTION_DOT": 5.547e-05, "MEAN_MOTION_DDOT": 0}, "tle": {"line1": "1 30145U 99025TA  25356.53686434  .00005547  00000+0  28234-2 0  9999", "line2": "2 30145  99.2701 106.4804 0090235 121.8007 300.3816 14.14123357963341"}}, "geometry": {"type": "Point", "coordinates": [-72.4167798269565, 3.9100592958492033]}}]}